H1 CPF 01  gfz 2021 01 27 13  5272 terrasarx 
H2 0702601  6201 31698    2021 01 27 12 59 42 2021 02 01 00 00 42   120 1 1  0 0 0
H9
10 0 59242  43182.000000  0     876145.517    965504.904   6753510.737
10 0 59242  43302.000000  0     891611.809     47650.489   6819856.895
10 0 59242  43422.000000  0     875456.079   -871029.805   6766393.021
10 0 59242  43542.000000  0     828090.332  -1773958.972   6594051.321
10 0 59242  43662.000000  0     750757.040  -2644843.908   6305840.419
10 0 59242  43782.000000  0     645500.396  -3467970.985   5906796.372
10 0 59242  43902.000000  0     515118.385  -4228491.243   5403897.283
10 0 59242  44022.000000  0     363098.204  -4912690.304   4805947.316
10 0 59242  44142.000000  0     193535.252  -5508241.969   4123430.249
10 0 59242  44262.000000  0      11035.892  -6004440.787   3368330.427
10 0 59242  44382.000000  0    -179393.597  -6392405.077   2553923.891
10 0 59242  44502.000000  0    -372468.839  -6665245.630   1694543.173
10 0 59242  44622.000000  0    -562757.292  -6818196.488    805322.317
10 0 59242  44742.000000  0    -744813.372  -6848706.458    -98077.107
10 0 59242  44862.000000  0    -913315.034  -6756483.250   -999751.952
10 0 59242  44982.000000  0   -1063197.361  -6543491.240  -1883846.475
10 0 59242  45102.000000  0   -1189780.528  -6213904.793  -2734838.282
10 0 59242  45222.000000  0   -1288889.339  -5774018.570  -3537816.652
10 0 59242  45342.000000  0   -1356961.072  -5232116.070  -4278746.999
10 0 59242  45462.000000  0   -1391138.658  -4598300.588  -4944714.783
10 0 59242  45582.000000  0   -1389347.575  -3884295.212  -5524144.794
10 0 59242  45702.000000  0   -1350354.985  -3103216.773  -6006994.027
10 0 59242  45822.000000  0   -1273809.988  -2269328.236  -6384915.825
10 0 59242  45942.000000  0   -1160264.632  -1397774.584  -6651392.628
10 0 59242  46062.000000  0   -1011175.906   -504308.589  -6801837.208
10 0 59242  46182.000000  0    -828888.716    394990.071  -6833663.088
10 0 59242  46302.000000  0    -616599.028   1283997.519  -6746323.224
10 0 59242  46422.000000  0    -378299.115   2146827.112  -6541318.239
10 0 59242  46542.000000  0    -118705.731   2968106.110  -6222174.142
10 0 59242  46662.000000  0     156829.584   3733245.857  -5794389.801
10 0 59242  46782.000000  0     442426.440   4428699.925  -5265351.093
10 0 59242  46902.000000  0     731794.920   5042205.603  -4644214.752
10 0 59242  47022.000000  0    1018367.471   5563006.966  -3941761.351
10 0 59242  47142.000000  0    1295440.978   5982052.833  -3170217.291
10 0 59242  47262.000000  0    1556325.712   6292165.370  -2343049.108
10 0 59242  47382.000000  0    1794498.228   6488175.814  -1474731.892
10 0 59242  47502.000000  0    2003754.732   6567022.501   -580494.991
10 0 59242  47622.000000  0    2178360.575   6527807.096    323949.914
10 0 59242  47742.000000  0    2313191.649   6371807.537   1222691.600
10 0 59242  47862.000000  0    2403864.601   6102447.618   2099906.968
10 0 59242  47982.000000  0    2446852.180   5725223.634   2940147.714
10 0 59242  48102.000000  0    2439581.357   5247590.284   3728619.934
10 0 59242  48222.000000  0    2380510.986   4678808.224   4451451.270
10 0 59242  48342.000000  0    2269186.615   4029755.686   5095940.342
10 0 59242  48462.000000  0    2106270.664   3312708.718   5650778.267
10 0 59242  48582.000000  0    1893550.707   2541102.243   6106242.392
10 0 59242  48702.000000  0    1633924.151   1729272.735   6454362.708
10 0 59242  48822.000000  0    1331358.890    892186.460   6689055.679
10 0 59242  48942.000000  0     990831.740     45161.237   6806223.156
10 0 59242  49062.000000  0     618246.305   -796412.389   6803819.669
10 0 59242  49182.000000  0     220330.417  -1617350.832   6681887.435
10 0 59242  49302.000000  0    -195485.543  -2402951.324   6442555.436
10 0 59242  49422.000000  0    -621207.180  -3139255.918   6090004.065
10 0 59242  49542.000000  0   -1048427.710  -3813300.240   5630394.311
10 0 59242  49662.000000  0   -1468490.850  -4413343.054   5071766.435
10 0 59242  49782.000000  0   -1872665.161  -4929076.521   4423908.174
10 0 59242  49902.000000  0   -2252325.608  -5351812.640   3698189.328
10 0 59242  50022.000000  0   -2599137.512  -5674639.067   2907363.816
10 0 59242  50142.000000  0   -2905237.955  -5892539.099   2065344.572
10 0 59242  50262.000000  0   -3163410.929  -6002475.387   1186956.037
10 0 59242  50382.000000  0   -3367252.163  -6003434.842    287667.630
10 0 59242  50502.000000  0   -3511319.188  -5896432.899   -616686.221
10 0 59242  50622.000000  0   -3591262.879  -5684476.882  -1510193.895
10 0 59242  50742.000000  0   -3603936.870  -5372488.506  -2377155.538
10 0 59242  50862.000000  0   -3547482.166  -4967188.021  -3202366.267
10 0 59242  50982.000000  0   -3421384.445  -4476943.331  -3971387.182
10 0 59242  51102.000000  0   -3226503.213  -3911589.456  -4670797.902
10 0 59242  51222.000000  0   -2965073.428  -3282223.755  -5288426.965
10 0 59242  51342.000000  0   -2640680.065  -2600981.336  -5813556.480
10 0 59242  51462.000000  0   -2258206.634  -1880796.630  -6237098.533
10 0 59242  51582.000000  0   -1823758.206  -1135155.647  -6551742.131
10 0 59242  51702.000000  0   -1344561.200   -377843.724  -6752067.548
10 0 59242  51822.000000  0    -828843.314    377305.642  -6834628.550
10 0 59242  51942.000000  0    -285694.445   1116657.083  -6798005.144
10 0 59242  52062.000000  0     275089.893   1827013.223  -6642825.051
10 0 59242  52182.000000  0     843179.570   2495844.074  -6371755.562
10 0 59242  52302.000000  0    1407896.624   3111504.964  -5989464.024
10 0 59242  52422.000000  0    1958411.623   3663438.188  -5502545.050
10 0 59242  52542.000000  0    2483947.985   4142354.929  -4919417.326
10 0 59242  52662.000000  0    2973991.167   4540395.993  -4250189.799
10 0 59242  52782.000000  0    3418498.830   4851268.170  -3506496.696
10 0 59242  52902.000000  0    3808107.959   5070351.977  -2701303.631
10 0 59242  53022.000000  0    4134334.812   5194777.949  -1848685.941
10 0 59242  53142.000000  0    4389760.917   5223468.895   -963583.981
10 0 59242  53262.000000  0    4568202.017   5157148.094    -61538.590
10 0 59242  53382.000000  0    4664854.394   4998309.348    841588.212
10 0 59242  53502.000000  0    4676413.139   4751151.250   1729899.155
10 0 59242  53622.000000  0    4601162.624   4421479.269   2587749.026
10 0 59242  53742.000000  0    4439035.112   4016574.141   3400030.448
10 0 59242  53862.000000  0    4191633.226   3545030.618   4152447.235
10 0 59242  53982.000000  0    3862219.000   3016571.879   4831769.252
10 0 59242  54102.000000  0    3455671.040   2441845.659   5426067.340
10 0 59242  54222.000000  0    2978405.761   1832204.170   5924921.360
10 0 59242  54342.000000  0    2438271.099   1199476.568   6319597.233
10 0 59242  54462.000000  0    1844413.190    555736.342   6603193.595
10 0 59242  54582.000000  0    1207118.244    -86928.888   6770755.856
10 0 59242  54702.000000  0     537632.441   -716643.203   6819359.137
10 0 59242  54822.000000  0    -152037.429  -1321962.315   6748156.226
10 0 59242  54942.000000  0    -849339.400  -1892081.127   6558390.831
10 0 59242  55062.000000  0   -1541404.268  -2417026.657   6253375.926
10 0 59242  55182.000000  0   -2215280.685  -2887832.077   5838438.716
10 0 59242  55302.000000  0   -2858176.482  -3296691.802   5320835.519
10 0 59242  55422.000000  0   -3457705.205  -3637095.504   4709632.308
10 0 59242  55542.000000  0   -4002129.513  -3903935.467   4015549.839
10 0 59242  55662.000000  0   -4480595.009  -4093586.273   3250778.763
10 0 59242  55782.000000  0   -4883351.210  -4203955.561   2428767.631
10 0 59242  55902.000000  0   -5201955.853  -4234504.956   1563985.460
10 0 59242  56022.000000  0   -5429455.578  -4186238.467    671661.945
10 0 59242  56142.000000  0   -5560538.552  -4061658.972   -232487.608
10 0 59242  56262.000000  0   -5591655.191  -3864694.158  -1132547.691
10 0 59242  56382.000000  0   -5521103.270  -3600593.097  -2012692.866
10 0 59242  56502.000000  0   -5349073.852  -3275795.497  -2857474.307
10 0 59242  56622.000000  0   -5077659.228  -2897779.402  -3652095.728
10 0 59242  56742.000000  0   -4710823.400  -2474890.649  -4382674.041
10 0 59242  56862.000000  0   -4254336.268  -2016158.884  -5036480.085
10 0 59242  56982.000000  0   -3715673.342  -1531104.805  -5602155.026
10 0 59242  57102.000000  0   -3103884.366  -1029542.563  -6069899.141
10 0 59242  57222.000000  0   -2429434.391   -521382.240  -6431630.681
10 0 59242  57342.000000  0   -1704020.210    -16436.612  -6681114.121
10 0 59242  57462.000000  0    -940366.118    475764.028  -6814055.691
10 0 59242  57582.000000  0    -152004.307    946146.535  -6828168.876
10 0 59242  57702.000000  0     646959.220   1386257.906  -6723209.028
10 0 59242  57822.000000  0    1442090.007   1788412.594  -6500979.151
10 0 59242  57942.000000  0    2218881.052   2145825.124  -6165303.088
10 0 59242  58062.000000  0    2963012.926   2452723.762  -5721966.628
10 0 59242  58182.000000  0    3660614.420   2704443.903  -5178626.550
10 0 59242  58302.000000  0    4298520.497   2897500.405  -4544690.735
10 0 59242  58422.000000  0    4864524.821   3029637.743  -3831166.404
10 0 59242  58542.000000  0    5347619.271   3099855.337  -3050477.372
10 0 59242  58662.000000  0    5738215.283   3108408.510  -2216254.930
10 0 59242  58782.000000  0    6028344.236   3056784.585  -1343102.611
10 0 59242  58902.000000  0    6211828.051   2947652.030   -446339.024
10 0 59242  59022.000000  0    6284417.156   2784785.502    458275.417
10 0 59242  59142.000000  0    6243890.262   2572966.052   1354822.733
10 0 59242  59262.000000  0    6090114.507   2317862.430   2227514.781
10 0 59242  59382.000000  0    5825064.201   2025894.429   3060980.781
10 0 59242  59502.000000  0    5452795.548   1704080.921   3840546.308
10 0 59242  59622.000000  0    4979379.196   1359877.763   4552497.703
99
